{
  "type": "FeatureCollection",
  "features": [
    {
      "type": "Feature",
      "properties": {
        "norad_id": 26766,
        "name": "INTELSAT 10 (IS-10)",
        "group": "intelsat",
        "lat": 1.6464219522319263,
        "lon": 71.80362532864463,
        "alt_km": 36152.46628883618,
        "timestamp": "2025-12-27T17:24:57.060953+00:00",
        "meta_object_name": "INTELSAT 10 (IS-10)",
        "meta_object_id": "2001-019A",
        "meta_epoch": "2025-12-27T04:51:38.509056",
        "meta_mean_motion": 0.9907171,
        "meta_eccentricity": 0.0008098,
        "meta_inclination": 8.662,
        "meta_ra_of_asc_node": 61.0096,
        "meta_arg_of_pericenter": 230.2441,
        "meta_mean_anomaly": 314.0374,
        "meta_ephemeris_type": 0,
        "meta_classification_type": "U",
        "meta_norad_cat_id": 26766,
        "meta_element_set_no": 999,
        "meta_rev_at_epoch": 4387,
        "meta_bstar": 0,
        "meta_mean_motion_dot": 6.5e-07,
        "meta_mean_motion_ddot": 0,
        "tle_line1": "1 26766U 01019A   25361.20252904  .00000065  00000+0  00000+0 0  9998",
        "tle_line2": "2 26766   8.6620  61.0096 0008098 230.2441 314.0374  0.99071710 43872"
      },
      "geometry": {
        "type": "Point",
        "coordinates": [
          71.80362532864463,
          1.6464219522319263
        ]
      }
    },
    {
      "type": "Feature",
      "properties": {
        "norad_id": 26900,
        "name": "INTELSAT 902 (IS-902)",
        "group": "intelsat",
        "lat": -4.588547185936018,
        "lon": -52.65630345648191,
        "alt_km": 35774.44177545854,
        "timestamp": "2025-12-27T17:24:57.060976+00:00",
        "meta_object_name": "INTELSAT 902 (IS-902)",
        "meta_object_id": "2001-039A",
        "meta_epoch": "2025-12-15T13:09:02.081664",
        "meta_mean_motion": 1.0027087,
        "meta_eccentricity": 0.00045028,
        "meta_inclination": 5.6536,
        "meta_ra_of_asc_node": 74.0372,
        "meta_arg_of_pericenter": 189.6359,
        "meta_mean_anomaly": 327.9329,
        "meta_ephemeris_type": 0,
        "meta_classification_type": "U",
        "meta_norad_cat_id": 26900,
        "meta_element_set_no": 999,
        "meta_rev_at_epoch": 8885,
        "meta_bstar": 0,
        "meta_mean_motion_dot": -2.65e-06,
        "meta_mean_motion_ddot": 0,
        "tle_line1": "1 26900U 01039A   25349.54794076 -.00000265  00000+0  00000+0 0  9997",
        "tle_line2": "2 26900   5.6536  74.0372 0004502 189.6359 327.9329  1.00270870 88858"
      },
      "geometry": {
        "type": "Point",
        "coordinates": [
          -52.65630345648191,
          -4.588547185936018
        ]
      }
    },
    {
      "type": "Feature",
      "properties": {
        "norad_id": 27380,
        "name": "INTELSAT 904 (IS-904)",
        "group": "intelsat",
        "lat": -6.281190085910528,
        "lon": -33.87831279920725,
        "alt_km": 35777.804690846235,
        "timestamp": "2025-12-27T17:24:57.061006+00:00",
        "meta_object_name": "INTELSAT 904 (IS-904)",
        "meta_object_id": "2002-007A",
        "meta_epoch": "2025-12-27T11:08:23.517312",
        "meta_mean_motion": 1.00272058,
        "meta_eccentricity": 0.0002163,
        "meta_inclination": 6.4895,
        "meta_ra_of_asc_node": 71.2606,
        "meta_arg_of_pericenter": 247.9862,
        "meta_mean_anomaly": 272.5687,
        "meta_ephemeris_type": 0,
        "meta_classification_type": "U",
        "meta_norad_cat_id": 27380,
        "meta_element_set_no": 999,
        "meta_rev_at_epoch": 5004,
        "meta_bstar": 0,
        "meta_mean_motion_dot": -2.06e-06,
        "meta_mean_motion_ddot": 0,
        "tle_line1": "1 27380U 02007A   25361.46416108 -.00000206  00000+0  00000+0 0  9993",
        "tle_line2": "2 27380   6.4895  71.2606 0002163 247.9862 272.5687  1.00272058 50047"
      },
      "geometry": {
        "type": "Point",
        "coordinates": [
          -33.87831279920725,
          -6.281190085910528
        ]
      }
    },
    {
      "type": "Feature",
      "properties": {
        "norad_id": 27426,
        "name": "DIRECTV 5 (TEMPO 1)",
        "group": "intelsat",
        "lat": 0.750737146678518,
        "lon": -112.42824758836848,
        "alt_km": 35774.33367423755,
        "timestamp": "2025-12-27T17:24:57.061029+00:00",
        "meta_object_name": "DIRECTV 5 (TEMPO 1)",
        "meta_object_id": "2002-023A",
        "meta_epoch": "2025-12-27T09:38:01.017024",
        "meta_mean_motion": 1.00271385,
        "meta_eccentricity": 0.0003496,
        "meta_inclination": 4.4376,
        "meta_ra_of_asc_node": 77.4783,
        "meta_arg_of_pericenter": 207.4741,
        "meta_mean_anomaly": 205.5645,
        "meta_ephemeris_type": 0,
        "meta_classification_type": "U",
        "meta_norad_cat_id": 27426,
        "meta_element_set_no": 999,
        "meta_rev_at_epoch": 8640,
        "meta_bstar": 0,
        "meta_mean_motion_dot": -3.6e-07,
        "meta_mean_motion_ddot": 0,
        "tle_line1": "1 27426U 02023A   25361.40140066 -.00000036  00000+0  00000+0 0  9994",
        "tle_line2": "2 27426   4.4376  77.4783 0003496 207.4741 205.5645  1.00271385 86402"
      },
      "geometry": {
        "type": "Point",
        "coordinates": [
          -112.42824758836848,
          0.750737146678518
        ]
      }
    },
    {
      "type": "Feature",
      "properties": {
        "norad_id": 27438,
        "name": "INTELSAT 905 (IS-905)",
        "group": "intelsat",
        "lat": 3.280957032547931,
        "lon": -139.3422797573533,
        "alt_km": 35778.62264500169,
        "timestamp": "2025-12-27T17:24:57.061051+00:00",
        "meta_object_name": "INTELSAT 905 (IS-905)",
        "meta_object_id": "2002-027A",
        "meta_epoch": "2025-12-23T05:41:27.377952",
        "meta_mean_motion": 1.00273243,
        "meta_eccentricity": 0.00027491,
        "meta_inclination": 6.3102,
        "meta_ra_of_asc_node": 71.9349,
        "meta_arg_of_pericenter": 206.5226,
        "meta_mean_anomaly": 121.7385,
        "meta_ephemeris_type": 0,
        "meta_classification_type": "U",
        "meta_norad_cat_id": 27438,
        "meta_element_set_no": 999,
        "meta_rev_at_epoch": 4959,
        "meta_bstar": 0,
        "meta_mean_motion_dot": 1.12e-06,
        "meta_mean_motion_ddot": 0,
        "tle_line1": "1 27438U 02027A   25357.23712243  .00000112  00000+0  00000+0 0  9993",
        "tle_line2": "2 27438   6.3102  71.9349 0002749 206.5226 121.7385  1.00273243 49592"
      },
      "geometry": {
        "type": "Point",
        "coordinates": [
          -139.3422797573533,
          3.280957032547931
        ]
      }
    },
    {
      "type": "Feature",
      "properties": {
        "norad_id": 27445,
        "name": "GALAXY 3C (G-3C)",
        "group": "intelsat",
        "lat": -0.16078464210594953,
        "lon": -97.16323884976997,
        "alt_km": 35786.39576040591,
        "timestamp": "2025-12-27T17:24:57.061065+00:00",
        "meta_object_name": "GALAXY 3C (G-3C)",
        "meta_object_id": "2002-030A",
        "meta_epoch": "2025-12-27T08:56:25.872288",
        "meta_mean_motion": 1.00271205,
        "meta_eccentricity": 0.0001005,
        "meta_inclination": 3.2981,
        "meta_ra_of_asc_node": 80.349,
        "meta_arg_of_pericenter": 91.0698,
        "meta_mean_anomaly": 323.9371,
        "meta_ephemeris_type": 0,
        "meta_classification_type": "U",
        "meta_norad_cat_id": 27445,
        "meta_element_set_no": 999,
        "meta_rev_at_epoch": 4477,
        "meta_bstar": 0,
        "meta_mean_motion_dot": -1.31e-06,
        "meta_mean_motion_ddot": 0,
        "tle_line1": "1 27445U 02030A   25361.37252167 -.00000131  00000+0  00000+0 0  9991",
        "tle_line2": "2 27445   3.2981  80.3490 0001005  91.0698 323.9371  1.00271205 44778"
      },
      "geometry": {
        "type": "Point",
        "coordinates": [
          -97.16323884976997,
          -0.16078464210594953
        ]
      }
    },
    {
      "type": "Feature",
      "properties": {
        "norad_id": 27513,
        "name": "INTELSAT 906 (IS-906)",
        "group": "intelsat",
        "lat": -1.212072994092955,
        "lon": 61.908585299253424,
        "alt_km": 35807.20860874335,
        "timestamp": "2025-12-27T17:24:57.061078+00:00",
        "meta_object_name": "INTELSAT 906 (IS-906)",
        "meta_object_id": "2002-041A",
        "meta_epoch": "2025-12-27T04:44:52.745280",
        "meta_mean_motion": 1.00271138,
        "meta_eccentricity": 0.0006141,
        "meta_inclination": 5.3666,
        "meta_ra_of_asc_node": 75.0601,
        "meta_arg_of_pericenter": 203.6338,
        "meta_mean_anomaly": 312.5849,
        "meta_ephemeris_type": 0,
        "meta_classification_type": "U",
        "meta_norad_cat_id": 27513,
        "meta_element_set_no": 999,
        "meta_rev_at_epoch": 8530,
        "meta_bstar": 0,
        "meta_mean_motion_dot": 3.3e-07,
        "meta_mean_motion_ddot": 0,
        "tle_line1": "1 27513U 02041A   25361.19783270  .00000033  00000+0  00000+0 0  9993",
        "tle_line2": "2 27513   5.3666  75.0601 0006141 203.6338 312.5849  1.00271138 85303"
      },
      "geometry": {
        "type": "Point",
        "coordinates": [
          61.908585299253424,
          -1.212072994092955
        ]
      }
    }
  ]
}